NORAD_CAT_ID,OBJECT_NAME,OBJECT_TYPE,EPOCH,MEAN_MOTION,ECCENTRICITY,INCLINATION,RA_OF_ASC_NODE,ARG_OF_PERICENTER,MEAN_ANOMALY,BSTAR,MEAN_MOTION_DOT,MEAN_MOTION_DDOT,TLE_LINE0,TLE_LINE1,TLE_LINE2,SEMIMAJOR_AXIS,PERIOD,APOGEE,PERIGEE,DECAYED
52264.0,STARLINK-3795,PAYLOAD,2023-09-20 12:17:22,15.08835767,0.0001287,53.2168,194.6648,96.9887,263.1251,7.3784e-05,8.86e-06,0.0,0 STARLINK-3795,1 52264U 22041D   23263.51206838  .00000886  00000-0  73784-4 0  9992,2 52264  53.2168 194.6648 0001287  96.9887 263.1251 15.08835767 78318,6917.893,95.438,540.649,538.868,0.0
52264.0,STARLINK-3795,PAYLOAD,2023-09-20 18:38:55,15.08831237,0.0001466,53.2186,193.4804,99.7539,260.3618,-1.6389e-05,-5.49e-06,0.0,0 STARLINK-3795,1 52264U 22041D   23263.77703445 -.00000549  00000-0 -16389-4 0  9992,2 52264  53.2186 193.4804 0001466  99.7539 260.3618 15.08831237 79565,6917.907,95.438,540.786,538.758,0.0
52264.0,STARLINK-3795,PAYLOAD,2023-09-21 02:35:51,15.08819057,0.0001444,53.2169,191.988,100.7675,259.3479,-0.00016251,-2.872e-05,0.0,0 STARLINK-3795,1 52264U 22041D   23264.10823956 -.00002872  00000-0 -16251-3 0  9998,2 52264  53.2169 191.9880 0001444 100.7675 259.3479 15.08819057 79618,6917.944,95.439,540.808,538.81,0.0
52264.0,STARLINK-3795,PAYLOAD,2023-09-21 05:46:38,15.08822442,0.0001431,53.2171,191.3938,98.2041,261.9113,0.00034123,5.144e-05,0.0,0 STARLINK-3795,1 52264U 22041D   23264.24072160  .00005144  00000-0  34123-3 0  9997,2 52264  53.2171 191.3938 0001431  98.2041 261.9113 15.08822442 78427,6917.934,95.439,540.789,538.809,0.0
52264.0,STARLINK-3795,PAYLOAD,2023-09-22 00:51:15,15.08859037,0.0001347,53.2169,187.8256,92.4874,267.6272,0.0012619,0.00019863,0.0,0 STARLINK-3795,1 52264U 22041D   23265.03560116  .00019863  00000-0  12619-2 0  9996,2 52264  53.2169 187.8256 0001347  92.4874 267.6272 15.08859037 79759,6917.822,95.436,540.619,538.755,0.0
52264.0,STARLINK-3795,PAYLOAD,2023-09-22 04:02:01,15.0886938,0.0001365,53.2169,187.2314,94.2546,265.8602,0.0014209,0.00022416,0.0,0 STARLINK-3795,1 52264U 22041D   23265.16807803  .00022416  00000-0  14209-2 0  9992,2 52264  53.2169 187.2314 0001365  94.2546 265.8602 15.08869380 78561,6917.791,95.436,540.6,538.711,0.0
52264.0,STARLINK-3795,PAYLOAD,2023-09-22 18:20:30,15.0886484,0.0001558,53.216,184.5544,86.4755,273.6416,0.0013187,0.00020776,0.0,0 STARLINK-3795,1 52264U 22041D   23265.76423634  .00020776  00000-0  13187-2 0  9995,2 52264  53.2160 184.5544 0001558  86.4755 273.6416 15.08864840 79866,6917.804,95.436,540.747,538.592,0.0
52264.0,STARLINK-3795,PAYLOAD,2023-09-23 00:42:02,15.08862868,0.0001241,53.2156,183.3638,76.5652,283.5479,0.001433,0.00022606,0.0,0 STARLINK-3795,1 52264U 22041D   23266.02919444  .00022606  00000-0  14330-2 0  9999,2 52264  53.2156 183.3638 0001241  76.5652 283.5479 15.08862868 79909,6917.81,95.436,540.534,538.817,0.0
52264.0,STARLINK-3795,PAYLOAD,2023-09-23 03:52:48,15.08860564,0.0001429,53.2162,182.7683,90.0756,270.0399,0.0010705,0.000168,0.0,0 STARLINK-3795,1 52264U 22041D   23266.16167284  .00016800  00000-0  10705-2 0  9992,2 52264  53.2162 182.7683 0001429  90.0756 270.0399 15.08860564 78714,6917.818,95.436,540.671,538.694,0.0
52264.0,STARLINK-3795,PAYLOAD,2023-09-23 18:11:17,15.08845975,0.0001299,53.2156,180.0926,80.4752,279.6386,0.00085156,0.00013293,0.0,0 STARLINK-3795,1 52264U 22041D   23266.75783663  .00013293  00000-0  85156-3 0  9998,2 52264  53.2156 180.0926 0001299  80.4752 279.6386 15.08845975 80018,6917.862,95.437,540.626,538.828,0.0
52264.0,STARLINK-3795,PAYLOAD,2023-09-24 00:32:49,15.08849867,0.000124,53.2156,178.9035,91.6485,268.465,0.0013747,0.00021664,0.0,0 STARLINK-3795,1 52264U 22041D   23267.02279587  .00021664  00000-0  13747-2 0  9991,2 52264  53.2156 178.9035 0001240  91.6485 268.4650 15.08849867 78840,6917.85,95.437,540.573,538.857,0.0
52264.0,STARLINK-3795,PAYLOAD,2023-09-24 21:12:50,15.08849453,0.0001432,53.2161,175.0379,104.1531,255.962,0.0013531,0.00021318,0.0,0 STARLINK-3795,1 52264U 22041D   23267.88392011  .00021318  00000-0  13531-2 0  9990,2 52264  53.2161 175.0379 0001432 104.1531 255.9620 15.08849453 78973,6917.851,95.437,540.707,538.726,0.0
52264.0,STARLINK-3795,PAYLOAD,2023-09-25 00:23:36,15.08846141,0.0001469,53.2161,174.4424,103.4017,256.7139,0.00094078,0.00014719,0.0,0 STARLINK-3795,1 52264U 22041D   23268.01639978  .00014719  00000-0  94078-3 0  9995,2 52264  53.2161 174.4424 0001469 103.4017 256.7139 15.08846141 80202,6917.862,95.437,540.743,538.71,0.0
52264.0,STARLINK-3795,PAYLOAD,2023-09-25 03:34:22,15.08864675,0.0001378,53.2161,173.8472,107.4395,252.6748,0.0015424,0.00024361,0.0,0 STARLINK-3795,1 52264U 22041D   23268.14887701  .00024361  00000-0  15424-2 0  9999,2 52264  53.2161 173.8472 0001378 107.4395 252.6748 15.08864675 80225,6917.805,95.436,540.623,538.717,0.0
52264.0,STARLINK-3795,PAYLOAD,2023-09-25 21:03:36,15.08865788,0.0001358,53.2163,170.5728,91.76,268.3548,0.00080427,0.00012544,0.0,0 STARLINK-3795,1 52264U 22041D   23268.87751032  .00012544  00000-0  80427-3 0  9992,2 52264  53.2163 170.5728 0001358  91.7600 268.3548 15.08865788 79122,6917.802,95.436,540.606,538.727,0.0
52264.0,STARLINK-3795,PAYLOAD,2023-09-26 00:14:22,15.08872971,0.0001457,53.2167,169.9823,95.2372,264.8787,0.00094553,0.00014806,0.0,0 STARLINK-3795,1 52264U 22041D   23269.00998743  .00014806  00000-0  94553-3 0  9998,2 52264  53.2167 169.9823 0001457  95.2372 264.8787 15.08872971 80354,6917.78,95.435,540.653,538.637,0.0
52264.0,STARLINK-3795,PAYLOAD,2023-09-26 17:43:38,15.08838454,0.00018,53.2174,166.7073,72.6567,287.4622,0.00012225,1.658e-05,0.0,0 STARLINK-3795,1 52264U 22041D   23269.73863554  .00001658  00000-0  12225-3 0  9996,2 52264  53.2174 166.7073 0001800  72.6567 287.4622 15.08838454 80460,6917.885,95.438,540.995,538.505,0.0
52264.0,STARLINK-3795,PAYLOAD,2023-09-26 20:54:24,15.08829708,0.0001552,53.2179,166.1118,99.3876,260.7292,-0.00018866,-3.288e-05,0.0,0 STARLINK-3795,1 52264U 22041D   23269.87111584 -.00003288  00000-0 -18866-3 0  9990,2 52264  53.2179 166.1118 0001552  99.3876 260.7292 15.08829708 79278,6917.912,95.438,540.851,538.703,0.0
52264.0,STARLINK-3795,PAYLOAD,2023-09-27 00:05:10,15.08827,0.0001353,53.2172,165.5178,91.314,268.8007,-0.00026174,-4.45e-05,0.0,0 STARLINK-3795,1 52264U 22041D   23270.00359859 -.00004450  00000-0 -26174-3 0  9999,2 52264  53.2172 165.5178 0001353  91.3140 268.8007 15.08827000 80509,6917.92,95.438,540.721,538.849,0.0
52264.0,STARLINK-3795,PAYLOAD,2023-09-27 09:37:30,15.08824253,0.0001378,53.2172,163.7352,81.3688,278.746,-0.0001692,-2.979e-05,0.0,0 STARLINK-3795,1 52264U 22041D   23270.40104491 -.00002979  00000-0 -16920-3 0  9995,2 52264  53.2172 163.7352 0001378  81.3688 278.7460 15.08824253 79357,6917.929,95.439,540.747,538.84,0.0
52264.0,STARLINK-3795,PAYLOAD,2023-09-27 23:55:58,15.08834779,0.0001391,53.2166,161.0598,87.8856,272.2295,-0.00013528,-2.44e-05,0.0,0 STARLINK-3795,1 52264U 22041D   23270.99720675 -.00002440  00000-0 -13528-3 0  9991,2 52264  53.2166 161.0598 0001391  87.8856 272.2295 15.08834779 80650,6917.896,95.438,540.724,538.799,0.0
52264.0,STARLINK-3795,PAYLOAD,2023-09-28 22:11:22,15.08841651,0.0001366,53.2164,156.8991,83.8102,276.3046,0.00039562,6.014e-05,0.0,0 STARLINK-3795,1 52264U 22041D   23271.92456968  .00006014  00000-0  39562-3 0  9991,2 52264  53.2164 156.8991 0001366  83.8102 276.3046 15.08841651 79585,6917.875,95.437,540.685,538.795,0.0
52264.0,STARLINK-3795,PAYLOAD,2023-09-28 23:46:45,15.08848297,0.0001393,53.2165,156.6012,86.9858,273.1293,0.00049368,7.579e-05,0.0,0 STARLINK-3795,1 52264U 22041D   23271.99080837  .00007579  00000-0  49368-3 0  9998,2 52264  53.2165 156.6012 0001393  86.9858 273.1293 15.08848297 80809,6917.855,95.437,540.684,538.756,0.0
52264.0,STARLINK-3795,PAYLOAD,2023-09-29 23:37:32,15.08856207,0.0001337,53.2159,152.1408,95.468,264.6464,0.000281,4.189e-05,0.0,0 STARLINK-3795,1 52264U 22041D   23272.98440008  .00004189  00000-0  28100-3 0  9993,2 52264  53.2159 152.1408 0001337  95.4680 264.6464 15.08856207 79744,6917.831,95.437,540.621,538.771,0.0
52264.0,STARLINK-3795,PAYLOAD,2023-09-30 09:09:51,15.08846482,0.0001318,53.2159,150.3565,97.294,262.8202,5.8335e-05,6.41e-06,0.0,0 STARLINK-3795,1 52264U 22041D   23273.38184137  .00000641  00000-0  58335-4 0  9999,2 52264  53.2159 150.3565 0001318  97.2940 262.8202 15.08846482 81013,6917.861,95.437,540.637,538.814,0.0
52264.0,STARLINK-3795,PAYLOAD,2023-09-30 23:28:19,15.08839227,0.0001522,53.2161,147.6791,97.6598,262.4567,-9.1742e-05,-1.748e-05,0.0,0 STARLINK-3795,1 52264U 22041D   23273.97800726 -.00001748  00000-0 -91742-4 0  9993,2 52264  53.2161 147.6791 0001522  97.6598 262.4567 15.08839227 81105,6917.883,95.438,540.801,538.695,0.0
52264.0,STARLINK-3795,PAYLOAD,2023-10-01 09:00:38,15.08842519,0.0001571,53.2171,145.8953,94.49,265.6271,4.4729e-05,4.24e-06,0.0,0 STARLINK-3795,1 52264U 22041D   23274.37544709  .00000424  00000-0  44729-4 0  9995,2 52264  53.2171 145.8953 0001571  94.4900 265.6271 15.08842519 79957,6917.873,95.437,540.824,538.651,0.0
52264.0,STARLINK-3795,PAYLOAD,2023-10-01 21:43:43,15.08848623,0.0001403,53.2147,143.5175,96.6143,263.5009,0.00025257,3.735e-05,0.0,0 STARLINK-3795,1 52264U 22041D   23274.90536430  .00003735  00000-0  25257-3 0  9998,2 52264  53.2147 143.5175 0001403  96.6143 263.5009 15.08848623 80037,6917.854,95.437,540.69,538.748,0.0
52264.0,STARLINK-3795,PAYLOAD,2023-10-02 00:54:29,15.08852122,0.0001465,53.2145,142.9227,96.6146,263.5013,0.00051083,7.854e-05,0.0,0 STARLINK-3795,1 52264U 22041D   23275.03784474  .00007854  00000-0  51083-3 0  9998,2 52264  53.2145 142.9227 0001465  96.6146 263.5013 15.08852122 81267,6917.843,95.437,540.722,538.695,0.0
52264.0,STARLINK-3795,PAYLOAD,2023-10-02 21:34:30,15.08848847,0.0001365,53.2147,139.0566,87.7073,272.4076,0.00046415,7.108e-05,0.0,0 STARLINK-3795,1 52264U 22041D   23275.89896593  .00007108  00000-0  46415-3 0  9993,2 52264  53.2147 139.0566 0001365  87.7073 272.4076 15.08848847 81392,6917.853,95.437,540.663,538.774,0.0
